INTELSAT 10 (IS-10)     
1 26766U 01019A   25253.19651051 -.00000150  00000+0  00000+0 0  9998
2 26766   8.3997  62.0924 0002987 177.6369   1.6684  0.99079414 42805
INTELSAT 902 (IS-902)   
1 26900U 01039A   25251.43783029 -.00000282  00000+0  00000+0 0  9992
2 26900   5.4008  75.2218 0004235  92.6030 287.4497  1.00271041 87872
INTELSAT 904 (IS-904)   
1 27380U 02007A   25253.29791095 -.00000203  00000+0  00000+0 0  9992
2 27380   6.2143  72.5316 0003192 112.0508 244.7929  1.00278267 48950
DIRECTV 5 (TEMPO 1)     
1 27426U 02023A   25253.34350218 -.00000058  00000+0  00000+0 0  9993
2 27426   4.1565  78.8089 0003290  98.1235 186.2488  1.00272029 85313
INTELSAT 905 (IS-905)   
1 27438U 02027A   25253.33864062  .00000094  00000+0  00000+0 0  9995
2 27438   6.0440  73.1616 0002403  97.8608 163.3235  1.00272493 48554
GALAXY 3C (G-3C)        
1 27445U 02030A   25253.37197491 -.00000154  00000+0  00000+0 0  9994
2 27445   3.0158  81.5015 0002318  58.9771 248.2430  1.00271371 43688
INTELSAT 906 (IS-906)   
1 27513U 02041A   25253.17328375  .00000013  00000+0  00000+0 0  9990
2 27513   5.0864  76.3723 0002273 118.9860 280.6275  1.00272334 84226
GALAXY 13 (HORIZONS-1)  
1 27954U 03044A   25253.34419833  .00000131  00000+0  00000+0 0  9993
2 27954   0.6898  87.9680 0002024  81.7013 153.8683  1.00273394 43769
INTELSAT 10-02          
1 28358U 04022A   25253.30311097 -.00000013  00000+0  00000+0 0  9998
2 28358   0.0386 272.9352 0000893 286.4153 258.3795  1.00271649 77748
XM-3 (RHYTHM)           
1 28626U 05008A   25253.37197491 -.00000202  00000+0  00000+0 0  9998
2 28626   0.0223 296.4234 0000301 198.8268 262.0065  1.00272259 39819
DIRECTV 8               
1 28659U 05019A   25253.38378131 -.00000001  00000+0  00000+0 0  9996
2 28659   0.0154 228.7338 0003141 317.5862 182.4765  1.00272396 74268
GALAXY 28 (G-28)        
1 28702U 05022A   25253.37197491 -.00000189  00000+0  00000+0 0  9993
2 28702   2.5736  82.4335 0001968  96.8290 215.5993  1.00272262 49174
GALAXY 16 (G-16)        
1 29236U 06023A   25253.21237057 -.00000129  00000+0  00000+0 0  9998
2 29236   0.0347 222.3895 0002718 313.1711 151.3836  1.00270757 70164
DIRECTV 9S              
1 29494U 06043A   25253.21193723 -.00000115  00000+0  00000+0 0  9992
2 29494   1.6920  84.3602 0002987  84.5253 155.7219  1.00271316 48579
GALAXY 17 (G-17)        
1 31307U 07016B   25253.37197491 -.00000208  00000+0  00000+0 0  9995
2 31307   2.2572  83.4761 0004120 135.4014 179.7014  1.00271966 66999
DIRECTV 10              
1 31862U 07032A   25253.35424490  .00000000  00000+0  00000+0 0  9998
2 31862   0.0046 320.5076 0000792 297.9566 115.8943  1.00269614 42788
INTELSAT 11 (IS-11)     
1 32253U 07044B   25253.36642274 -.00000057  00000+0  00000+0 0  9992
2 32253   2.8299  82.1234 0007684 117.0115 198.7749  0.99047893 65676
HORIZONS-2              
1 32388U 07063B   25253.36628387 -.00000255  00000+0  00000+0 0  9991
2 32388   1.8737  84.1206 0001909 120.7930 202.8128  1.00272507 65002
DIRECTV 11              
1 32729U 08013A   25253.21228390 -.00000128  00000+0  00000+0 0  9999
2 32729   0.0407 315.5483 0000198 229.0597 142.1189  1.00272562 42789
GALAXY 18 (G-18)        
1 32951U 08024A   25253.38378131  .00000023  00000+0  00000+0 0  9998
2 32951   0.0164 227.8069 0003134 308.8060 188.2147  1.00273315 43047
INTELSAT 25 (IS-25)     
1 33153U 08034A   25253.29704427 -.00000225  00000+0  00000+0 0  9990
2 33153   1.9802  83.8130 0005000 113.3844 227.8397  1.00270231 62887
GALAXY 19 (G-19)        
1 33376U 08045A   25253.35545824 -.00000141  00000+0  00000+0 0  9997
2 33376   0.0529 267.4143 0002932 273.7114 199.4876  1.00271698 62093
FM-5                    
1 35493U 09034A   25253.37197491 -.00000202  00000+0  00000+0 0  9991
2 35493   0.0420 273.0667 0000440 181.7738 302.5687  1.00269616 43836
INTELSAT 14 (IS-14)     
1 36097U 09064A   25253.29444426 -.00000276  00000+0  00000+0 0  9990
2 36097   0.0358 294.7600 0002492 248.2142 227.6076  1.00267477 57793
INTELSAT 15 (IS-15)     
1 36106U 09067A   25253.10614802  .00000000  00000+0  00000+0 0  9995
2 36106   0.0215 144.8538 0002448  40.3088 287.5698  1.00268242 38427
DIRECTV 12              
1 36131U 09075A   25253.35424490 -.00000106  00000+0  00000+0 0  9999
2 36131   0.0123 346.7160 0000357 213.1622 174.5716  1.00270984 43741
INTELSAT 16 (IS-16)     
1 36397U 10006A   25253.36642274 -.00000247  00000+0  00000+0 0  9998
2 36397   0.0372 292.0378 0002201 249.6998 223.6241  1.00269915 56841
XM-5                    
1 37185U 10053A   25253.38378131 -.00000025  00000+0  00000+0 0  9990
2 37185   0.0585 273.5899 0000248 163.9038 295.1420  1.00270211 54670
INTELSAT 17 (IS-17)     
1 37238U 10065B   25253.17183855 -.00000004  00000+0  00000+0 0  9993
2 37238   0.0197 198.6618 0002739 346.5885 292.0677  1.00271381 50440
INTELSAT 28 (IS-28)     
1 37392U 11016A   25253.29704427 -.00000226  00000+0  00000+0 0  9994
2 37392   1.0765  86.3292 0004441  89.3034 249.1951  1.00271947 50473
INTELSAT 18 (IS-18)     
1 37834U 11056A   25253.33899150  .00000051  00000+0  00000+0 0  9997
2 37834   0.0199 240.7178 0001873 287.2861 123.6541  1.00271403 51004
INTELSAT 22 (IS-22)     
1 38098U 12011A   25253.17493043 -.00000061  00000+0  00000+0 0  9997
2 38098   0.0139 131.1532 0001950  49.8076 303.5784  1.00271655  4380
INTELSAT 19 (IS-19)     
1 38356U 12030A   25253.36086552  .00000000  00000+0  00000+0 0  9991
2 38356   0.0157 157.3212 0003026  24.8628 103.3591  1.00269485 47640
INTELSAT 20 (IS-20)     
1 38740U 12043A   25253.17415043 -.00000027  00000+0  00000+0 0  9992
2 38740   0.0102 160.0320 0001503  16.2539 304.3616  1.00273293 47948
INTELSAT 21 (IS-21)     
1 38749U 12045A   25253.35531014 -.00000287  00000+0  00000+0 0  9998
2 38749   0.0458 272.9120 0001974 267.0079 239.6241  1.00269704 47710
INTELSAT 23 (IS-23)     
1 38867U 12057A   25253.35531014 -.00000287  00000+0  00000+0 0  9992
2 38867   0.0483 260.3645 0001092 323.5807 200.6132  1.00270511 47142
FM-6                    
1 39360U 13058A   25253.34350218 -.00000019  00000+0  00000+0 0  9990
2 39360   0.0222 133.5240 0002210  38.5837 185.0061  1.00269512 43257
INTELSAT 30 (IS-30)     
1 40271U 14062A   25253.37197491  .00000000  00000+0  00000+0 0  9993
2 40271   0.0174 127.1571 0001309 280.4361 340.9084  1.00268961  3979
DIRECTV 14              
1 40333U 14078B   25253.21228390  .00000000  00000+0  00000+0 0  9995
2 40333   0.0199 152.2490 0000608  74.1627 100.2722  1.00272830 39232
DIRECTV 15              
1 40663U 15026A   25253.35424490 -.00000104  00000+0  00000+0 0  9995
2 40663   0.0321  96.6037 0000148  63.6592 214.0412  1.00269065 37656
SKY MEXICO-1            
1 40664U 15026B   25253.36642274  .00000000  00000+0  00000+0 0  9993
2 40664   0.0221 139.7649 0002194  47.1007 215.9234  1.00269017 37643
INTELSAT 34 (IS-34)     
1 40874U 15039A   25253.35531014 -.00000288  00000+0  00000+0 0  9997
2 40874   0.0148 220.8468 0001426 145.8827  55.3281  1.00269924 36811
INTELSAT 31 (IS-31)     
1 41581U 16035A   25253.37197491 -.00000153  00000+0  00000+0 0  9990
2 41581   0.0230 228.2448 0001840 355.6330 164.6327  1.00269982 33871
INTELSAT 36 (IS-36)     
1 41747U 16053A   25253.17415043  .00000000  00000+0  00000+0 0  9998
2 41747   0.0140 133.0669 0001650 199.9950 147.5597  1.00269441 33148
INTELSAT 32E (IS-32E)   
1 41945U 17007B   25253.29479093 -.00000271  00000+0  00000+0 0  9997
2 41945   0.0176 108.8783 0000220 221.1253  82.5207  1.00269127 31415
INTELSAT 35E (IS-35E)   
1 42818U 17041A   25253.29652427  .00000000  00000+0  00000+0 0  9998
2 42818   0.0217 162.3597 0002545  43.5330 215.9245  1.00269224 30009
INTELSAT 37E (IS-37E)   
1 42950U 17059A   25253.29973095 -.00000143  00000+0  00000+0 0  9990
2 42950   0.0157 206.0592 0002979 334.6770 258.7439  1.00270041 29257
AZERSPACE 2 (IS-38)     
1 43632U 18074A   25253.16955707  .00000000  00000+0  00000+0 0  9993
2 43632   0.0206 156.5636 0001393  29.8542 269.1632  1.00270375 25636
HORIZONS-3E             
1 43633U 18074B   25253.36044887 -.00000033  00000+0  00000+0 0  9991
2 43633   0.0326 264.3589 0001802  25.4261 358.6179  1.00270669 25535
AT&T T-16               
1 44333U 19034A   25253.21193723 -.00000117  00000+0  00000+0 0  9997
2 44333   0.0223 103.4230 0000166  41.6832 179.8261  1.00269514 22822
INTELSAT 39 (IS-39)     
1 44476U 19049B   25253.17285042  .00000000  00000+0  00000+0 0  9992
2 44476   0.0207 160.7734 0000758 155.8388 157.0075  1.00269908 22321
GALAXY 30 (G-30)        
1 46114U 20056C   25253.38378131  .00000035  00000+0  00000+0 0  9996
2 46114   0.0209 132.5328 0002094  42.0659 188.2277  1.00271939 18482
GALAXY 33 (G-33)        
1 54026U 22128A   25253.34835154  .00000077  00000+0  00000+0 0  9994
2 54026   0.0191 125.7722 0001904  54.8268 161.4552  1.00272773 10939
GALAXY 34 (G-34)        
1 54027U 22128B   25253.06368118  .00000000  00000+0  00000+0 0  9991
2 54027   0.0185 168.0362 0001499   5.5055  69.8062  1.00272128 11100
GALAXY 31 (G-31)        
1 54243U 22153A   25253.38378131  .00000011  00000+0  00000+0 0  9992
2 54243   0.0103 157.6557 0001461  43.0780 166.1055  1.00272469  4328
GALAXY 32 (G-32)        
1 54244U 22153B   25252.64282247  .00000000  00000+0  00000+0 0  9991
2 54244   0.0160 151.8307 0000102 126.2589 211.2668  1.00269368 10337
GALAXY 35 (G-35)        
1 54741U 22170A   25253.37197491 -.00000165  00000+0  00000+0 0  9992
2 54741   0.0093 158.8575 0002019  10.3609 221.2428  1.00272480 10089
GALAXY 36 (G-36)        
1 54742U 22170B   25253.37197491 -.00000187  00000+0  00000+0 0  9997
2 54742   0.0185 211.3824 0001938 287.6968 255.4969  1.00270797  9963
GALAXY 37 (G-37)        
1 57493U 23112A   25253.27815086  .00000046  00000+0  00000+0 0  9999
2 57493   0.0282 270.6592 0002150 275.8103 136.2457  1.00273096  7730
